KORSAT-2                
1 62377U 24247A   26068.41070335  .00005163  00000+0  43498-3 0  9994
2 62377  45.4085 225.0391 0009773  57.7708 302.4117 14.99271316 66592
STARLINK-33885          
1 63886U 25094Y   26068.87181255  .00004798  00000+0  40965-3 0  9994
2 63886  70.0018 233.8651 0003058 266.2522  93.8288 14.98331241 47238
